#bV2001  7 22  0  0   .00000000       4 DD+AD WGS84 FIT NIMA
## 1124       .00000000   900.00000000 52112  .0000000000000
+   29   G01G02G03G04G05G06G07G08G09G10G11G13G14G15G17G18G19
+        G20G21G22G23G24G25G26G27G28G29G30G31  0  0  0  0  0
+          0  0  0  0  0  0  0  0  0  0  0  0  0  0  0  0  0
+          0  0  0  0  0  0  0  0  0  0  0  0  0  0  0  0  0
+          0  0  0  0  0  0  0  0  0  0  0  0  0  0  0  0  0
++         0  0  0  0  0  0  0  0  0  0  0  0  0  0  0  0  0
++         0  0  0  0  0  0  0  0  0  0  0  0  0  0  0  0  0
++         0  0  0  0  0  0  0  0  0  0  0  0  0  0  0  0  0
++         0  0  0  0  0  0  0  0  0  0  0  0  0  0  0  0  0
++         0  0  0  0  0  0  0  0  0  0  0  0  0  0  0  0  0
%c G  cc GPS ccc cccc cccc cccc cccc ccccc ccccc ccccc ccccc
%c cc cc ccc ccc cccc cccc cccc cccc ccccc ccccc ccccc ccccc
%f  0.0000000  0.000000000  0.00000000000  0.000000000000000
%f  0.0000000  0.000000000  0.00000000000  0.000000000000000
%i    0    0    0    0      0      0      0      0         0
%i    0    0    0    0      0      0      0      0         0
/*     NIMA, ST. LOUIS,MO.
/*   EPHEMERIS COMPUTED FROM  3 DAYS OF DATA
/* CCCCCCCCCCCCCCCCCCCCCCCCCCCCCCCCCCCCCCCCCCCCCCCCCCCCCCCCC
/* CCCCCCCCCCCCCCCCCCCCCCCCCCCCCCCCCCCCCCCCCCCCCCCCCCCCCCCCC
*  2001  7 22  0  0   .00000000
PG01 -19484.465925  -4505.544665  17659.441578    186.657376
VG01  19430.725479 -10588.099171  18880.428192       .014175
PG02  -9968.051833  19853.296527 -13582.137061    -47.632959
VG02  -3437.935472 -18543.931656 -23951.726796      -.053990
PG03   1871.435118 -17603.433338 -19817.204061     49.733689
VG03  22805.718918 -10783.127539  11840.760572       .033242
PG04  -6529.232461  13630.283537  21894.734567    639.851393
VG04 -22671.348874 -15766.239688   3296.206263      -.139523
PG05  13614.553052  13023.859744  18731.520221    306.920259
VG05  -2045.279454  23878.509258 -14957.762044       .012408
PG06  24544.124784  -4025.209460   9789.130257     -2.080532
VG06  -9718.978187   7802.164288  27845.343213       .009141
PG07 -18707.084879  16766.780691   8582.072924    468.885781
VG07 -10775.825536   2077.583886 -28974.934472      -.252832
PG08 -16250.002399   5940.881457 -20428.485779    421.628062
VG08 -20041.946592 -15604.453211  11369.569735       .285991
PG09  21597.245693  15755.607541  -2117.229515    -54.876452
VG09  -3554.859790   1172.828360 -30974.884041      -.015234
PG10   2248.241753  25627.833536  -6136.250739      7.324559
VG10  -2922.045079   7613.805369  30998.430304       .007030
PG11 -22097.420901 -14628.651182  -1367.168510      2.965511
VG11   3629.695868  -2572.325665 -30822.594505       .002146
PG13 -24657.412356   6287.743660   7437.390560     -3.484430
VG13   7435.715255  -6347.964614  30106.938928      -.002783
PG14  18836.963826 -16381.941743   9266.374768   -118.271772
VG14  11523.790998  -3013.930388 -28763.290578      -.013575
PG15  16943.957089  -4036.162641 -20328.829677     60.226670
VG15  19300.237643  16168.023173  12990.359092       .048602
PG17  20829.405722   3209.508148 -16552.758907    280.077051
VG17  15091.086685  14213.912059  21141.262879       .482109
PG18  15273.348521  -7606.639667 -20362.753858    -73.656035
VG18  -2127.021085  25743.462533 -11316.028088       .001615
PG19 -24436.104713  -9738.400916  -4478.320607    606.329457
VG19  -3396.805631  -5903.236764  30174.139072       .128622
PG20 -12673.757178 -12833.776027  19417.176032    -85.481955
VG20   3041.400310 -24652.258753 -14310.569003      -.026684
PG21  10309.094610 -20240.002892 -12858.103117      4.391762
VG21   1015.855281  17274.010163 -26269.142711       .000568
PG22   -646.024226 -26248.557817  -1151.047589    582.049331
VG22   4191.497885  -1106.551601  31398.097450      -.031797
PG23  14621.115743    -17.075627 -21685.127407     16.808327
VG23  -3234.165330  28469.333683  -2335.410899       .007153
PG24   7478.042476  19423.694532  16806.039533     66.982241
VG24 -17423.819576 -11293.293057  21149.137492       .027130
PG25   3620.885547 -15934.850594  21237.578687     15.632692
VG25  23036.609028  12888.442935   5656.216307       .003320
PG26   9416.664823  12132.268019 -21822.919595    544.573934
VG26 -24681.940551  11847.907684  -3489.497012       .086401
PG27 -22427.712216  -1640.582088 -14319.659933     27.817362
VG27 -14540.182836 -11583.547073  23042.596063       .011153
PG28 -15150.994622  -1276.922491 -21676.068199     -6.178936
VG28   1938.092629 -27714.643393     96.171919      -.027393
PG29  14102.535692 -17963.081438  13729.142410    620.436052
VG29  16101.336405  -5943.721297 -24892.795025       .042402
PG30  15533.778536     11.881515  21361.112674    -28.509750
VG30  -1234.822712  27596.859238    929.953333      -.012174
PG31 -11419.524215 -11446.220525 -21365.503523     54.515761
VG31  23339.271191 -12670.281759  -5439.734662       .013910
*  2001  7 22  0 15   .00000000
PG01 -17682.183328  -5544.982014  19204.001623    186.659125
VG01  20535.043066 -12510.387937  15395.013976       .014362
PG02 -10321.447098  18071.586596 -15607.055637    -47.638322
VG02  -4458.542422 -20982.856741 -20976.350601      -.054228
PG03   3843.113153 -18589.464929 -18584.279645     49.738879
VG03  20955.974007 -11064.119064  15518.773420       .033283
PG04  -8614.306560  12262.842783  22003.243274    639.838715
VG04 -23588.354558 -14567.967997   -886.968661      -.139536
PG05  13480.667443  15094.225933  17228.209680    306.922318
VG05   -966.162406  22057.014646 -18400.595818       .012496
PG06  23566.601076  -3237.258203  12205.526887     -2.079908
VG06 -11937.934461   9737.953294  25776.998650       .009017
PG07 -19543.464939  16902.412526   5907.762203    468.862633
VG07  -7813.908852    865.816959 -30369.573483      -.252871
PG08 -18036.870104   4619.863550 -19236.451066    421.653400
VG08 -19583.789123 -13730.886610  15082.908994       .285960
PG09  21147.722342  15789.816284  -4879.519423    -54.877925
VG09  -6455.860527   -348.698465 -30324.032181      -.015365
PG10   2009.296884  26159.382456  -3301.012594      7.325239
VG10  -2457.341546   4174.806987  31915.234940       .006796
PG11 -21640.401949 -14791.959773  -4121.417549      2.965745
VG11   6547.255651  -1116.632901 -30294.740557       .002140
PG13 -23870.602604   5627.701245  10074.844399     -3.484835
VG13   9985.672369  -8359.479015  28418.574745      -.002784
PG14  19735.564193 -16609.869996   6605.916310   -118.272909
VG14   8446.397977  -1978.304716 -30273.742664      -.013578
PG15  18662.801805  -2671.995037 -18992.098341     60.230687
VG15  18811.099234  14125.964657  16673.764808       .048804
PG17  22134.376663   4379.359386 -14516.853128    280.120945
VG17  13827.321186  11783.892340  24036.243457       .482045
PG18  15138.233557  -5235.562284 -21203.258005    -73.655992
VG18   -847.410575  26862.277727  -7335.589225       .001615
PG19 -24617.847035 -10192.248371  -1732.342767    606.340592
VG19   -602.556156  -4233.369971  30761.025750       .128306
PG20 -12460.449419 -14979.377566  17964.782472    -85.484285
VG20   1730.940486 -22947.264462 -17918.168929      -.026687
PG21  10436.606458 -18556.427475 -15098.588737      4.392369
VG21   1875.817988  20076.762941 -23444.032612       .000918
PG22   -265.147880 -26195.746260   1676.630770    582.046702
VG22   4337.048742   2278.704947  31345.817022      -.031810
PG23  14398.978107   2555.503514 -21699.391372     16.809398
VG23  -1692.971245  28599.999309   2017.793450       .006973
PG24   5799.088088  18395.408701  18562.692492     66.984743
VG24 -19850.922953 -11479.283214  17833.888966       .026848
PG25   5741.605867 -14816.091887  21567.241213     15.632786
VG25  24020.282999  11925.900345   1658.766569       .003415
PG26   7213.049737  13264.257140 -21950.664246    544.581395
VG26 -24205.522613  13268.347539    658.114673       .086390
PG27 -23655.486363  -2588.165439 -12130.079046     27.816915
VG27 -12673.124383  -9492.838537  25543.499160       .011193
PG28 -15041.394006  -3766.073161 -21479.290216     -6.181707
VG28    498.565540 -27508.155400   4269.223314      -.027381
PG29  15424.594983 -18471.730734  11378.053605    620.439725
VG29  13259.433931  -5283.531085 -27280.419160       .042397
PG30  15483.277578   2494.691757  21257.709959    -28.511207
VG30    111.667250  27486.486750  -3224.065883      -.012125
PG31  -9329.715479 -12650.108298 -21674.528103     54.518395
VG31  23023.117102 -14047.173304  -1416.389883       .014452
EOF
